CCSDS_OMM_VERS = 2.0
CREATION_DATE  = 
ORIGINATOR     = 

OBJECT_NAME    = STARLINK-36353
OBJECT_ID      = 2026-032Z
CENTER_NAME    = EARTH
REF_FRAME      = TEME
TIME_SYSTEM    = UTC
MEAN_ELEMENT_THEORY = SGP/SGP4

EPOCH          = 2026-03-01T06:44:00.089376
MEAN_MOTION    = 15.79947249
ECCENTRICITY   = .00032142
INCLINATION    = 97.2811
RA_OF_ASC_NODE = 246.4103
ARG_OF_PERICENTER = 153.1618
MEAN_ANOMALY   = 206.9816

EPHEMERIS_TYPE = 0
CLASSIFICATION_TYPE = U
NORAD_CAT_ID   = 67820
ELEMENT_SET_NO = 999
REV_AT_EPOCH   = 346
BSTAR          = -.27489694E-2
MEAN_MOTION_DOT = -.479697E-2
MEAN_MOTION_DDOT = 0

CCSDS_OMM_VERS = 2.0
CREATION_DATE  = 
ORIGINATOR     = 

OBJECT_NAME    = STARLINK-36644
OBJECT_ID      = 2026-033A
CENTER_NAME    = EARTH
REF_FRAME      = TEME
TIME_SYSTEM    = UTC
MEAN_ELEMENT_THEORY = SGP/SGP4

EPOCH          = 2026-03-01T04:06:43.029504
MEAN_MOTION    = 15.82103903
ECCENTRICITY   = .00019094
INCLINATION    = 42.9976
RA_OF_ASC_NODE = 323.7302
ARG_OF_PERICENTER = 248.4269
MEAN_ANOMALY   = 111.6400

EPHEMERIS_TYPE = 0
CLASSIFICATION_TYPE = U
NORAD_CAT_ID   = 67821
ELEMENT_SET_NO = 999
REV_AT_EPOCH   = 327
BSTAR          = .12494208E-2
MEAN_MOTION_DOT = .272104E-2
MEAN_MOTION_DDOT = 0

CCSDS_OMM_VERS = 2.0
CREATION_DATE  = 
ORIGINATOR     = 

OBJECT_NAME    = STARLINK-36643
OBJECT_ID      = 2026-033B
CENTER_NAME    = EARTH
REF_FRAME      = TEME
TIME_SYSTEM    = UTC
MEAN_ELEMENT_THEORY = SGP/SGP4

EPOCH          = 2026-03-01T04:05:38.221728
MEAN_MOTION    = 15.82108514
ECCENTRICITY   = .00020073
INCLINATION    = 42.9981
RA_OF_ASC_NODE = 323.7245
ARG_OF_PERICENTER = 266.4340
MEAN_ANOMALY   = 93.6302

EPHEMERIS_TYPE = 0
CLASSIFICATION_TYPE = U
NORAD_CAT_ID   = 67822
ELEMENT_SET_NO = 999
REV_AT_EPOCH   = 327
BSTAR          = .12137216E-2
MEAN_MOTION_DOT = .264126E-2
MEAN_MOTION_DDOT = 0

CCSDS_OMM_VERS = 2.0
CREATION_DATE  = 
ORIGINATOR     = 

OBJECT_NAME    = STARLINK-36646
OBJECT_ID      = 2026-033C
CENTER_NAME    = EARTH
REF_FRAME      = TEME
TIME_SYSTEM    = UTC
MEAN_ELEMENT_THEORY = SGP/SGP4

EPOCH          = 2026-03-01T02:31:27.162336
MEAN_MOTION    = 15.85828201
ECCENTRICITY   = .00264035
INCLINATION    = 42.9972
RA_OF_ASC_NODE = 324.0954
ARG_OF_PERICENTER = 272.5606
MEAN_ANOMALY   = 87.2245

EPHEMERIS_TYPE = 0
CLASSIFICATION_TYPE = U
NORAD_CAT_ID   = 67823
ELEMENT_SET_NO = 999
REV_AT_EPOCH   = 326
BSTAR          = .56930468E-2
MEAN_MOTION_DOT = .1459689E-1
MEAN_MOTION_DDOT = .937265E-3

CCSDS_OMM_VERS = 2.0
CREATION_DATE  = 
ORIGINATOR     = 

OBJECT_NAME    = STARLINK-36647
OBJECT_ID      = 2026-033D
CENTER_NAME    = EARTH
REF_FRAME      = TEME
TIME_SYSTEM    = UTC
MEAN_ELEMENT_THEORY = SGP/SGP4

EPOCH          = 2026-03-01T04:03:28.607904
MEAN_MOTION    = 15.82147260
ECCENTRICITY   = .0002221
INCLINATION    = 42.9976
RA_OF_ASC_NODE = 323.7120
ARG_OF_PERICENTER = 256.1562
MEAN_ANOMALY   = 103.9063

EPHEMERIS_TYPE = 0
CLASSIFICATION_TYPE = U
NORAD_CAT_ID   = 67824
ELEMENT_SET_NO = 999
REV_AT_EPOCH   = 327
BSTAR          = .16593917E-2
MEAN_MOTION_DOT = .366313E-2
MEAN_MOTION_DDOT = 0

CCSDS_OMM_VERS = 2.0
CREATION_DATE  = 
ORIGINATOR     = 

OBJECT_NAME    = STARLINK-36648
OBJECT_ID      = 2026-033E
CENTER_NAME    = EARTH
REF_FRAME      = TEME
TIME_SYSTEM    = UTC
MEAN_ELEMENT_THEORY = SGP/SGP4

EPOCH          = 2026-03-01T04:02:24.017856
MEAN_MOTION    = 15.82105907
ECCENTRICITY   = .00020822
INCLINATION    = 42.9978
RA_OF_ASC_NODE = 323.7060
ARG_OF_PERICENTER = 256.1139
MEAN_ANOMALY   = 103.9501

EPHEMERIS_TYPE = 0
CLASSIFICATION_TYPE = U
NORAD_CAT_ID   = 67825
ELEMENT_SET_NO = 999
REV_AT_EPOCH   = 327
BSTAR          = .1242697E-2
MEAN_MOTION_DOT = .270618E-2
MEAN_MOTION_DDOT = 0

CCSDS_OMM_VERS = 2.0
CREATION_DATE  = 
ORIGINATOR     = 

OBJECT_NAME    = STARLINK-35865
OBJECT_ID      = 2026-033F
CENTER_NAME    = EARTH
REF_FRAME      = TEME
TIME_SYSTEM    = UTC
MEAN_ELEMENT_THEORY = SGP/SGP4

EPOCH          = 2026-03-01T02:30:25.087392
MEAN_MOTION    = 15.82098320
ECCENTRICITY   = .00016715
INCLINATION    = 42.9987
RA_OF_ASC_NODE = 324.0860
ARG_OF_PERICENTER = 272.3078
MEAN_ANOMALY   = 87.7603

EPHEMERIS_TYPE = 0
CLASSIFICATION_TYPE = U
NORAD_CAT_ID   = 67826
ELEMENT_SET_NO = 999
REV_AT_EPOCH   = 326
BSTAR          = .18463843E-2
MEAN_MOTION_DOT = .408748E-2
MEAN_MOTION_DDOT = 0

CCSDS_OMM_VERS = 2.0
CREATION_DATE  = 
ORIGINATOR     = 

OBJECT_NAME    = STARLINK-36289
OBJECT_ID      = 2026-033G
CENTER_NAME    = EARTH
REF_FRAME      = TEME
TIME_SYSTEM    = UTC
MEAN_ELEMENT_THEORY = SGP/SGP4

EPOCH          = 2026-03-01T04:00:14.671872
MEAN_MOTION    = 15.82124207
ECCENTRICITY   = .00009976
INCLINATION    = 42.9976
RA_OF_ASC_NODE = 323.6935
ARG_OF_PERICENTER = 243.2087
MEAN_ANOMALY   = 116.8683

EPHEMERIS_TYPE = 0
CLASSIFICATION_TYPE = U
NORAD_CAT_ID   = 67827
ELEMENT_SET_NO = 999
REV_AT_EPOCH   = 327
BSTAR          = .19856649E-2
MEAN_MOTION_DOT = .441891E-2
MEAN_MOTION_DDOT = 0

CCSDS_OMM_VERS = 2.0
CREATION_DATE  = 
ORIGINATOR     = 

OBJECT_NAME    = STARLINK-36670
OBJECT_ID      = 2026-033H
CENTER_NAME    = EARTH
REF_FRAME      = TEME
TIME_SYSTEM    = UTC
MEAN_ELEMENT_THEORY = SGP/SGP4

EPOCH          = 2026-03-01T03:59:09.749184
MEAN_MOTION    = 15.82082992
ECCENTRICITY   = .00020806
INCLINATION    = 42.9982
RA_OF_ASC_NODE = 323.6866
ARG_OF_PERICENTER = 264.2720
MEAN_ANOMALY   = 95.7915

EPHEMERIS_TYPE = 0
CLASSIFICATION_TYPE = U
NORAD_CAT_ID   = 67828
ELEMENT_SET_NO = 999
REV_AT_EPOCH   = 327
BSTAR          = .14974129E-2
MEAN_MOTION_DOT = .328039E-2
MEAN_MOTION_DDOT = 0

CCSDS_OMM_VERS = 2.0
CREATION_DATE  = 
ORIGINATOR     = 

OBJECT_NAME    = STARLINK-36144
OBJECT_ID      = 2026-033J
CENTER_NAME    = EARTH
REF_FRAME      = TEME
TIME_SYSTEM    = UTC
MEAN_ELEMENT_THEORY = SGP/SGP4

EPOCH          = 2026-03-01T02:27:10.619136
MEAN_MOTION    = 15.82137722
ECCENTRICITY   = .00018688
INCLINATION    = 42.9989
RA_OF_ASC_NODE = 324.0680
ARG_OF_PERICENTER = 268.2659
MEAN_ANOMALY   = 91.7999

EPHEMERIS_TYPE = 0
CLASSIFICATION_TYPE = U
NORAD_CAT_ID   = 67829
ELEMENT_SET_NO = 999
REV_AT_EPOCH   = 326
BSTAR          = .21327073E-2
MEAN_MOTION_DOT = .476882E-2
MEAN_MOTION_DDOT = 0

CCSDS_OMM_VERS = 2.0
CREATION_DATE  = 
ORIGINATOR     = 

OBJECT_NAME    = STARLINK-36611
OBJECT_ID      = 2026-033K
CENTER_NAME    = EARTH
REF_FRAME      = TEME
TIME_SYSTEM    = UTC
MEAN_ELEMENT_THEORY = SGP/SGP4

EPOCH          = 2026-03-01T03:57:00.312480
MEAN_MOTION    = 15.82112277
ECCENTRICITY   = .00021058
INCLINATION    = 42.9978
RA_OF_ASC_NODE = 323.6749
ARG_OF_PERICENTER = 234.0044
MEAN_ANOMALY   = 126.0633

EPHEMERIS_TYPE = 0
CLASSIFICATION_TYPE = U
NORAD_CAT_ID   = 67830
ELEMENT_SET_NO = 999
REV_AT_EPOCH   = 327
BSTAR          = .18322227E-2
MEAN_MOTION_DOT = .405728E-2
MEAN_MOTION_DDOT = 0

CCSDS_OMM_VERS = 2.0
CREATION_DATE  = 
ORIGINATOR     = 

OBJECT_NAME    = STARLINK-36661
OBJECT_ID      = 2026-033L
CENTER_NAME    = EARTH
REF_FRAME      = TEME
TIME_SYSTEM    = UTC
MEAN_ELEMENT_THEORY = SGP/SGP4

EPOCH          = 2026-03-01T03:55:55.575552
MEAN_MOTION    = 15.82074765
ECCENTRICITY   = .00017967
INCLINATION    = 42.9982
RA_OF_ASC_NODE = 323.6681
ARG_OF_PERICENTER = 243.7635
MEAN_ANOMALY   = 116.3052

EPHEMERIS_TYPE = 0
CLASSIFICATION_TYPE = U
NORAD_CAT_ID   = 67831
ELEMENT_SET_NO = 999
REV_AT_EPOCH   = 327
BSTAR          = .17208556E-2
MEAN_MOTION_DOT = .379186E-2
MEAN_MOTION_DDOT = 0

CCSDS_OMM_VERS = 2.0
CREATION_DATE  = 
ORIGINATOR     = 

OBJECT_NAME    = STARLINK-36662
OBJECT_ID      = 2026-033M
CENTER_NAME    = EARTH
REF_FRAME      = TEME
TIME_SYSTEM    = UTC
MEAN_ELEMENT_THEORY = SGP/SGP4

EPOCH          = 2026-03-01T02:45:23.572224
MEAN_MOTION    = 15.85935045
ECCENTRICITY   = .0002391
INCLINATION    = 42.9964
RA_OF_ASC_NODE = 323.2628
ARG_OF_PERICENTER = 273.9136
MEAN_ANOMALY   = 86.1464

EPHEMERIS_TYPE = 0
CLASSIFICATION_TYPE = U
NORAD_CAT_ID   = 67832
ELEMENT_SET_NO = 999
REV_AT_EPOCH   = 327
BSTAR          = -.17365492E-2
MEAN_MOTION_DOT = -.421178E-2
MEAN_MOTION_DDOT = 0

CCSDS_OMM_VERS = 2.0
CREATION_DATE  = 
ORIGINATOR     = 

OBJECT_NAME    = STARLINK-36659
OBJECT_ID      = 2026-033N
CENTER_NAME    = EARTH
REF_FRAME      = TEME
TIME_SYSTEM    = UTC
MEAN_ELEMENT_THEORY = SGP/SGP4

EPOCH          = 2026-03-01T03:54:50.474880
MEAN_MOTION    = 15.82147427
ECCENTRICITY   = .0002057
INCLINATION    = 42.9979
RA_OF_ASC_NODE = 323.6624
ARG_OF_PERICENTER = 252.4203
MEAN_ANOMALY   = 107.6444

EPHEMERIS_TYPE = 0
CLASSIFICATION_TYPE = U
NORAD_CAT_ID   = 67833
ELEMENT_SET_NO = 999
REV_AT_EPOCH   = 327
BSTAR          = .15803065E-2
MEAN_MOTION_DOT = .348087E-2
MEAN_MOTION_DDOT = 0

CCSDS_OMM_VERS = 2.0
CREATION_DATE  = 
ORIGINATOR     = 

OBJECT_NAME    = STARLINK-36655
OBJECT_ID      = 2026-033P
CENTER_NAME    = EARTH
REF_FRAME      = TEME
TIME_SYSTEM    = UTC
MEAN_ELEMENT_THEORY = SGP/SGP4

EPOCH          = 2026-03-01T03:53:46.034304
MEAN_MOTION    = 15.82126146
ECCENTRICITY   = .00020839
INCLINATION    = 42.9981
RA_OF_ASC_NODE = 323.6561
ARG_OF_PERICENTER = 258.6818
MEAN_ANOMALY   = 101.3820

EPHEMERIS_TYPE = 0
CLASSIFICATION_TYPE = U
NORAD_CAT_ID   = 67834
ELEMENT_SET_NO = 999
REV_AT_EPOCH   = 327
BSTAR          = .14561626E-2
MEAN_MOTION_DOT = .319306E-2
MEAN_MOTION_DDOT = 0

